,hospital_id,mug_id,campus_id,name_hospital,name_campus,address_campus,postal_code,municipality,region,province,full_address,location,latitude,longitude
0,9,102000,6230,ZIEKENHUISNETWERK ANTWERPEN (ZNA),ZNA CADIX,KEMPENSTRAAT 100,2030,ANTWERPEN,V,Antwerpen,"KEMPENSTRAAT 100, 2030, ANTWERPEN, Antwerpen","Spoedafdeling ZNA Cadix, 100, Kempenstraat, Nieuwstad-Cadix, Eilandje, Antwerpen-Noord, Antwerpen, Vlaanderen, 2060, België / Belgique / Belgien",51.2314218,4.4162842
1,99,102000,2020,GZA- ZIEKENHUIZEN,SINT-VINCENTIUS,ST.-VINCENTIUSSTRAAT 20,2018,ANTWERPEN,V,Antwerpen,"ST.-VINCENTIUSSTRAAT 20, 2018, ANTWERPEN, Antwerpen","20, Sint-Vincentiusstraat, Klein-Antwerpen, Linkeroever, Antwerpen, Vlaanderen, 2018, België / Belgique / Belgien",51.20585595,4.412845471265044
2,682,102000,1210,AZ MONICA,DEURNE,FLORENT PAUWELSLEI 1,2100,DEURNE,V,Antwerpen,"FLORENT PAUWELSLEI 1, 2100, DEURNE, Antwerpen","AZ Monica, 1, Florent Pauwelslei, Boterlaar-Silsburg, Deurne-Zuid, Deurne, Antwerpen, Vlaanderen, 2100, België / Belgique / Belgien",51.20655645,4.470777599595392
3,9,103000,2000,ZIEKENHUISNETWERK ANTWERPEN (ZNA),ZNA MIDDELHEIM,LINDENDREEF 1,2020,ANTWERPEN,V,Antwerpen,"LINDENDREEF 1, 2020, ANTWERPEN, Antwerpen","ZNA Middelheim, 1, Lindendreef, Middelheim, Antwerpen, Vlaanderen, 2020, België / Belgique / Belgien",51.18087175,4.420410113969714
4,99,103000,1290,GZA- ZIEKENHUIZEN,SINT- AUGUSTINUS,OOSTERVELDLAAN 24,2610,WILRIJK,V,Antwerpen,"OOSTERVELDLAAN 24, 2610, WILRIJK, Antwerpen","Medisch Instituut Sint-Augustinus, 24, Oosterveldlaan, Oosterveld, Wilrijk, Antwerpen, Vlaanderen, 2610, België / Belgique / Belgien",51.174354199999996,4.420085367933087
5,9,104000,3360,ZIEKENHUISNETWERK ANTWERPEN (ZNA),ZNA JAN PALFIJN,LANGE BREMSTRAAT 70,2170,MERKSEM,V,Antwerpen,"LANGE BREMSTRAAT 70, 2170, MERKSEM, Antwerpen","ZNA Jan Palfijn, 70, Lange Bremstraat, Tuinwijk, Merksem, Antwerpen, Vlaanderen, 2170, België / Belgique / Belgien",51.258890199999996,4.451460683174039
6,710,104000,3450,AZ KLINA,,AUGUSTIJNSLEI 100,2930,BRASSCHAAT,V,Antwerpen,"AUGUSTIJNSLEI 100, 2930, BRASSCHAAT, Antwerpen","Huisartsenwachtpost Noordrand, 100, Augustijnslei, Brasschaat, Antwerpen, Vlaanderen, 2930, België / Belgique / Belgien",51.2995792,4.4888632
7,300,105000,4220,UNIVERSITAIR ZIEKENHUIS ANTWERPEN,,DRIE EIKENSTRAAT 655,2650,EDEGEM,V,Antwerpen,"DRIE EIKENSTRAAT 655, 2650, EDEGEM, Antwerpen","Testcentrum UZA, 655, Drie Eikenstraat, Edegem, Antwerpen, Vlaanderen, 2650, België / Belgique / Belgien",51.1565956,4.4113563
8,308,106000,1250,AZ HERENTALS,,NEDERRIJ 133,2200,HERENTALS,V,Antwerpen,"NEDERRIJ 133, 2200, HERENTALS, Antwerpen","133, Nederrij, Herentals, Turnhout, Antwerpen, Vlaanderen, 2200, België / Belgique / Belgien",51.1850253,4.835565
9,63,107000,1280,AZ TURNHOUT,SINT-ELISABETH,RUBENSSTRAAT 166,2300,TURNHOUT,V,Antwerpen,"RUBENSSTRAAT 166, 2300, TURNHOUT, Antwerpen","166, Rubensstraat, Blijkhoef, Turnhout, Antwerpen, Vlaanderen, 2300, België / Belgique / Belgien",51.313725,4.941307285430003
10,536,108000,2090,AZ VOORKEMPEN,,OUDE LIERSEBAAN 4,2390,MALLE,V,Antwerpen,"OUDE LIERSEBAAN 4, 2390, MALLE, Antwerpen","AZ Voorkempen, 4, Andreas Vesaliuslaan - Oude Liersebaan, Westmalle, Malle, Antwerpen, Vlaanderen, 2390, België / Belgique / Belgien",51.2745056,4.644915133470479
11,709,109000,2690,ZIEKENHUIS GEEL,,J.B. STESSENSSTRAAT 2,2440,GEEL,V,Antwerpen,"J.B. STESSENSSTRAAT 2, 2440, GEEL, Antwerpen","2;4, J. B. Stessensstraat, Geel, Turnhout, Antwerpen, Vlaanderen, 2440, België / Belgique / Belgien",51.1598362,5.000547
12,97,110000,1260,HEILIG HART ZIEKENHUIS ,,MECHELSESTRAAT 24,2500,LIER,V,Antwerpen,"MECHELSESTRAAT 24, 2500, LIER, Antwerpen","Heilig Hartziekenhuis, 24, Mechelsestraat, Lier, Mechelen, Antwerpen, Vlaanderen, 2500, België / Belgique / Belgien",51.13226185,4.563711030382116
13,26,111000,6170,AZ SINT-MAARTEN,,LIERSESTEENWEG 435,2800,MECHELEN,V,Antwerpen,"LIERSESTEENWEG 435, 2800, MECHELEN, Antwerpen","Ziekenhuis Mechelen, hospitaal Mechelen, spoed Mechelen, Mechelen spoed, 435, Liersesteenweg, Kauwendael, Mechelen, Antwerpen, Vlaanderen, 2800, België / Belgique / Belgien",51.05145589999999,4.475731222583679
14,689,112000,2040,IMELDA  ZIEKENHUIS,,IMELDALAAN 9,2820,BONHEIDEN,V,Antwerpen,"IMELDALAAN 9, 2820, BONHEIDEN, Antwerpen","Imelda Ziekenhuis, 9, Imeldalaan, Bonheiden, Mechelen, Antwerpen, Vlaanderen, 2820, België / Belgique / Belgien",51.01734385,4.558895396450215
15,670,201000,3850,UNIVERSITAIR ZIEKENHUIS GENT,,CORNEEL HEYMANSLAAN 10,9000,GENT,V,Oost-Vlaanderen,"CORNEEL HEYMANSLAAN 10, 9000, GENT, Oost-Vlaanderen","Universitair Ziekenhuis Gent, 10, Corneel Heymanslaan, Ottergemse Dries, Gent, Oost-Vlaanderen, Vlaanderen, 9000, België / Belgique / Belgien",51.02353555,3.7266310296153846
16,290,202000,1630,AZ SINT-LUCAS,SINT-LUCAS,GROENEBRIEL 1,9000,GENT,V,Oost-Vlaanderen,"GROENEBRIEL 1, 9000, GENT, Oost-Vlaanderen","A.Z. Sint-Lucas campus Sint-Lucas, 1, Groenebriel, Sluizeken, Gent, Oost-Vlaanderen, Vlaanderen, 9000, België / Belgique / Belgien",51.0625472,3.720755897
17,713,202000,1610,AZ JAN PALFIJN,,WATERSPORTLAAN 5,9000,GENT,V,Oost-Vlaanderen,"WATERSPORTLAAN 5, 9000, GENT, Oost-Vlaanderen","Watersportlaan, Ekkergem, Gent, Oost-Vlaanderen, Vlaanderen, 9000, België / Belgique / Belgien",51.0480684,3.6992271
18,595,203000,1860,VITAZ,VITAZ SINT-NIKLAAS,MOERLANDSTRAAT 1,9100,SINT-NIKLAAS,V,Oost-Vlaanderen,"MOERLANDSTRAAT 1, 9100, SINT-NIKLAAS, Oost-Vlaanderen","AZ Nikolaas (Moerland), 1, Moerlandstraat, Knaptand, Sint-Niklaas, Oost-Vlaanderen, Vlaanderen, 9100, België / Belgique / Belgien",51.1615693,4.149296348053046
19,12,204000,3460,AZ SINT-BLASIUS,SINT-BLASIUS,KROONVELDLAAN 50,9200,DENDERMONDE,V,Oost-Vlaanderen,"KROONVELDLAAN 50, 9200, DENDERMONDE, Oost-Vlaanderen","50, Kroonveldlaan, Lutterzele, Sint-Gillis-bij-Dendermonde, Dendermonde, Oost-Vlaanderen, Vlaanderen, 9200, België / Belgique / Belgien",51.02605405,4.113617040368655
20,126,205000,1780,ONZE-LIEVE-VROUW ZIEKENHUIS,OLV AALST,MOORSELBAAN 164,9300,AALST,V,Oost-Vlaanderen,"MOORSELBAAN 164, 9300, AALST, Oost-Vlaanderen","Onze-Lieve-Vrouwziekenhuis, 164, Moorselbaan, Aalst, Oost-Vlaanderen, 9300, België / Belgique / Belgien",50.9438525,4.054090046824072
21,176,205000,1800,A.S.Z. - AUTONOME VERZORGINGSINSTELLING,A.S.Z. AALST,MERESTRAAT 80,9300,AALST,V,Oost-Vlaanderen,"MERESTRAAT 80, 9300, AALST, Oost-Vlaanderen","80, Merestraat, Aalst, Oost-Vlaanderen, 9300, België / Belgique / Belgien",50.93609375,4.018446145
22,176,205100,1820,A.S.Z. - AUTONOME VERZORGINGSINSTELLING,A.S.Z. GERAARDSBERGEN,GASTHUISSTRAAT 4,9500,GERAARDSBERGEN,V,Oost-Vlaanderen,"GASTHUISSTRAAT 4, 9500, GERAARDSBERGEN, Oost-Vlaanderen","ASZ Campus Geraardsbergen, 4, Gasthuisstraat, Stationswijk, Geraardsbergen, Aalst, Oost-Vlaanderen, 9500, België / Belgique / Belgien",50.77052655,3.8776493440285975
23,550,206000,1680,AZ GLORIEUX,,GLORIEUXLAAN 55,9600,RONSE,V,Oost-Vlaanderen,"GLORIEUXLAAN 55, 9600, RONSE, Oost-Vlaanderen","Stefaan-Modest Glorieuxlaan - Avenue Stefaan-Modest Glorieux, Kloef, Ronse - Renaix, Ronse, Oudenaarde, Oost-Vlaanderen, Vlaanderen, 9600, België / Belgique / Belgien",50.7528575,3.6017071
24,217,207000,1900,AZ SINT-ELISABETH,,GODVEERDEGEMSTRAAT 69,9620,ZOTTEGEM,V,Oost-Vlaanderen,"GODVEERDEGEMSTRAAT 69, 9620, ZOTTEGEM, Oost-Vlaanderen","AZ Sint-Elisabeth Zottegem, 69, Godveerdegemstraat, Bevegem, Zottegem, Aalst, Oost-Vlaanderen, Vlaanderen, 9620, België / Belgique / Belgien",50.8636167,3.817120817084816
25,170,208000,1660,AZ OUDENAARDE,,MINDERBROEDERSSTRAAT 3,9700,OUDENAARDE,V,Oost-Vlaanderen,"MINDERBROEDERSSTRAAT 3, 9700, OUDENAARDE, Oost-Vlaanderen","AZ Oudenaarde, 3, Minderbroedersstraat, Pamele, Oudenaarde, Oost-Vlaanderen, 9700, België / Belgique / Belgien",50.84329055,3.6020601336527114
26,32,209000,1845,AZ ALMA,,RINGLAAN 15,9900,EEKLO,V,Oost-Vlaanderen,"RINGLAAN 15, 9900, EEKLO, Oost-Vlaanderen","15, Ringlaan, Eeklo, Oost-Vlaanderen, Vlaanderen, 9900, België / Belgique / Belgien",51.1909718,3.5323607
27,49,301000,1010,AZ SINT-JAN,SINT-JAN BRUGGE,RUDDERSHOVE 10,8000,BRUGGE,V,West-Vlaanderen,"RUDDERSHOVE 10, 8000, BRUGGE, West-Vlaanderen","10, Ruddershove, Sint-Pieters, Brugge, West-Vlaanderen, 8000, België / Belgique / Belgien",51.2205145,3.1972082
28,392,302000,1030,AZ ZENO,AZ ZENO KNOKKE-HEIST,KALVEKEETDIJK 260,8300,KNOKKE-HEIST,V,West-Vlaanderen,"KALVEKEETDIJK 260, 8300, KNOKKE-HEIST, West-Vlaanderen","AZ Zeno campus Knokke-Heist, 260, Kalvekeetdijk, Westkapelle, Knokke-Heist, Brugge, West-Vlaanderen, 8300, België / Belgique / Belgien",51.3264585,3.292349377123748
29,525,304000,1940,AZ OOSTENDE ,DAMIAAN,GOUWELOZESTRAAT 100,8400,OOSTENDE,V,West-Vlaanderen,"GOUWELOZESTRAAT 100, 8400, OOSTENDE, West-Vlaanderen","100, Gouwelozestraat, Meiboom, Konterdam, Stene, Oostende, West-Vlaanderen, Vlaanderen, 8400, België / Belgique / Belgien",51.218419,2.9332302
30,396,305000,1090,AZ GROENINGE,KENNEDYLAAN,PRESIDENT KENNEDYLAAN 4,8500,KORTRIJK,V,West-Vlaanderen,"PRESIDENT KENNEDYLAAN 4, 8500, KORTRIJK, West-Vlaanderen","AZ Groeninge - campus Kennedylaan, 4, President Kennedylaan, Kortrijk, West-Vlaanderen, Vlaanderen, 8500, België / Belgique / Belgien",50.80156275,3.2648779487453705
31,310,306000,1980,AZ WEST,,IEPERSE STEENWEG 100,8630,VEURNE,V,West-Vlaanderen,"IEPERSE STEENWEG 100, 8630, VEURNE, West-Vlaanderen","100, Ieperse Steenweg, Zuidburg, Voorstad, Veurne, West-Vlaanderen, 8630, België / Belgique / Belgien",51.0621977,2.6666211045081964
32,395,307000,1170,SINT-ANDRIES ZIEKENHUIS,,BRUGGESTRAAT 84,8700,TIELT,V,West-Vlaanderen,"BRUGGESTRAAT 84, 8700, TIELT, West-Vlaanderen","84, Bruggestraat, Tielt, West-Vlaanderen, 8700, België / Belgique / Belgien",51.0028561,3.3225112
33,117,308000,6210,AZ DELTA,RUMBEKE,DELTALAAN 1,8800,ROESELARE,V,West-Vlaanderen,"DELTALAAN 1, 8800, ROESELARE, West-Vlaanderen","1, Deltalaan, Armoede, Rumbeke, Roeselare, West-Vlaanderen, Vlaanderen, 8800, België / Belgique / Belgien",50.9188334,3.1672335
34,117,309000,1970,AZ DELTA,TORHOUT,ST.-REMBERTLAAN 21,8820,TORHOUT,V,West-Vlaanderen,"ST.-REMBERTLAAN 21, 8820, TORHOUT, West-Vlaanderen","AZ Delta Campus Rembert Torhout, 21, Sint-Rembertlaan, Sint-Pieter, Torhout, Brugge, West-Vlaanderen, 8820, België / Belgique / Belgien",51.07030985,3.0955879070103354
35,57,310000,2700,JAN YPERMAN ZIEKENHUIS,,BRIEKESTRAAT 12,8900,IEPER,V,West-Vlaanderen,"BRIEKESTRAAT 12, 8900, IEPER, West-Vlaanderen","Jan Yperman Ziekenhuis, 12, Briekestraat, Sint-Jan, Ieper, West-Vlaanderen, 8900, België / Belgique / Belgien",50.865092450000006,2.8976248501616118
36,117,311000,1960,AZ DELTA,MENEN,OUDE LEIELAAN 6,8930,MENEN,V,West-Vlaanderen,"OUDE LEIELAAN 6, 8930, MENEN, West-Vlaanderen","AZ Delta Campus Menen, 6, Oude Leielaan, De Barakken, Menen, Kortrijk, West-Vlaanderen, 8930, België / Belgique / Belgien",50.792904,3.122746390559333
37,715,401000,3650,SINT-TRUDO ZIEKENHUIS,,DIESTERSTEENWEG 100,3800,SINT-TRUIDEN,V,Limburg,"DIESTERSTEENWEG 100, 3800, SINT-TRUIDEN, Limburg","Regionaal Ziekenhuis Sint-Trudo, 100, Diestersteenweg, Guvelingen, Sint-Truiden, Hasselt, Limburg, 3800, België / Belgique / Belgien",50.823409850000004,5.185281484185678
38,243,402000,3590,JESSA ZIEKENHUIS,VIRGA JESSE,STADSOMVAART 11,3500,HASSELT,V,Limburg,"STADSOMVAART 11, 3500, HASSELT, Limburg","Jessa Ziekenhuis, campus Virga Jesse, 11, Stadsomvaart, Katarina, Hasselt, Limburg, Vlaanderen, 3500, België / Belgique / Belgien",50.92607995,5.341714991907178
39,714,403000,3600,SINT- FRANCISCUS ZIEKENHUIS,,PASTOOR PAQUAYLAAN 129,3550,HEUSDEN,V,Limburg,"PASTOOR PAQUAYLAAN 129, 3550, HEUSDEN, Limburg","129, Pastoor Paquaylaan, Berkenbos, Heusden, Heusden-Zolder, Hasselt, Limburg, Vlaanderen, 3550, België / Belgique / Belgien",51.0469607,5.315524378025867
40,371,404000,3560,ZIEKENHUIS OOST - LIMBURG,SINT- JAN,SYNAPS PARK 1,3600,GENK,V,Limburg,"SYNAPS PARK 1, 3600, GENK, Limburg","Synaps Park, Winterslag, Genk, Hasselt, Limburg, 3600, België / Belgique / Belgien",50.9569981,5.518312351012494
41,717,405000,6120,ZIEKENHUIS OOST - LIMBURG,MAAS EN KEMPEN,DIESTERSTEENWEG 425,3680,MAASEIK,V,Limburg,"DIESTERSTEENWEG 425, 3680, MAASEIK, Limburg","Diestersteenweg, Geisteren, Neeroeteren, Maaseik, Limburg, 3680, België / Belgique / Belgien",51.1007086,5.6976202
42,716,406000,3670,AZ VESALIUS,,HAZELEREIK 51,3700,TONGEREN,V,Limburg,"HAZELEREIK 51, 3700, TONGEREN, Limburg","Vesalius Ziekenhuis, 51, Hazelereik, Tongeren, Limburg, 3700, België / Belgique / Belgien",50.78922255,5.483310954912156
43,719,407000,3615,NOORDERHART,MARIAZIEKENHUIS,MAESENSVELD 1,3900,PELT,V,Limburg,"MAESENSVELD 1, 3900, PELT, Limburg","Mariaziekenhuis, 1, Maesensveld, Overpelt, Pelt, Maaseik, Limburg, 3900, België / Belgique / Belgien",51.212077,5.417082004126188
44,106,500000,1340,ALGEMEEN ZIEKENHUIS SINT-MARIA,,ZIEKENHUISLAAN 100,1500,HALLE,V,Vlaams-Brabant,"ZIEKENHUISLAAN 100, 1500, HALLE, Vlaams-Brabant","Sint-Maria Halle, 100, Ziekenhuislaan, Grote Weide, Halle, Halle-Vilvoorde, Vlaams-Brabant, 1500, België / Belgique / Belgien",50.73597705,4.226021822526673
45,322,501000,4230,UZ LEUVEN,GASTHUISBERG,HERESTRAAT 49,3000,LEUVEN,V,Vlaams-Brabant,"HERESTRAAT 49, 3000, LEUVEN, Vlaams-Brabant","Leuven Gasthuisberg Campus, 49, Ring Noord, Leuven, Vlaams-Brabant, Vlaanderen, 3000, België / Belgique / Belgien",50.8809909,4.6730253
46,204,502000,1460,AZ JAN PORTAELS,,GENDARMERIESTRAAT 65,1800,VILVOORDE,V,Vlaams-Brabant,"GENDARMERIESTRAAT 65, 1800, VILVOORDE, Vlaams-Brabant","AZ Jan Portaels, 65, Gendarmeriestraat, Kassei, Vilvoorde, Halle-Vilvoorde, Vlaams-Brabant, 1800, België / Belgique / Belgien",50.9275714,4.418553596286964
47,109,503000,1370,RZ HEILIG HART TIENEN,MARIENDAL,KLINIEKSTRAAT 45,3300,TIENEN,V,Vlaams-Brabant,"KLINIEKSTRAAT 45, 3300, TIENEN, Vlaams-Brabant","Heilig Hart Ziekenhuis, 45, Kliniekstraat, Tienen, Leuven, Vlaams-Brabant, Vlaanderen, 3300, België / Belgique / Belgien",50.81088805,4.933484733
48,712,504000,1320,AZ DIEST,,STATIESTRAAT 65,3290,DIEST,V,Vlaams-Brabant,"STATIESTRAAT 65, 3290, DIEST, Vlaams-Brabant","65, Statiestraat, Diest, Leuven, Vlaams-Brabant, 3290, België / Belgique / Belgien",50.987049150000004,5.051519403584623
49,77,521000,1590,UVC BRUGMANN,PAUL BRIEN,SCHAARBEEKSE HAARDSTRAAT 36,1030,SCHAARBEEK,B,Brussels Hoofdstedelijk Gewest,"SCHAARBEEKSE HAARDSTRAAT 36, 1030, SCHAARBEEK, Brussels Hoofdstedelijk Gewest","Centre hospitalier Paul Brien - Verplegingscentrum Paul Brien, 36, Rue du Foyer Schaerbeekois - Schaarbeekse Haardstraat, Helmet, Schaerbeek - Schaarbeek, Brussel-Hoofdstad - Bruxelles-Capitale, Région de Bruxelles-Capitale - Brussels Hoofdstedelijk Gewest, 1030, België / Belgique / Belgien",50.870316349999996,4.3862076830732715
50,406,522000,4210,ERASMUSZIEKENHUIS (ULB),,ROUTE DE LENNIK 808,1070,ANDERLECHT,B,Brussels Hoofdstedelijk Gewest,"ROUTE DE LENNIK 808, 1070, ANDERLECHT, Brussels Hoofdstedelijk Gewest","Hôpital Érasme - Erasmusziekenhuis, 808, Route de Lennik - Lennikse Baan, Anderlecht, Brussel-Hoofdstad - Bruxelles-Capitale, Région de Bruxelles-Capitale - Brussels Hoofdstedelijk Gewest, 1070, België / Belgique / Belgien",50.8138125,4.2649348787207675
51,76,523000,1520,UMC SINT-PIETER,HALLEPOORT,WOLSTRAAT 105,1000,BRUSSEL,B,Brussels Hoofdstedelijk Gewest,"WOLSTRAAT 105, 1000, BRUSSEL, Brussels Hoofdstedelijk Gewest","105, Rue aux Laines - Wolstraat, Marolles - Marollen, Pentagone - Vijfhoek, Bruxelles - Brussel, Ville de Bruxelles - Stad Brussel, Brussel-Hoofdstad - Bruxelles-Capitale, Région de Bruxelles-Capitale - Brussels Hoofdstedelijk Gewest, 1000, België / Belgique / Belgien",50.8342232,4.3472462
52,403,524000,4190,UNIVERSITAIR ZIEKENHUIS ST. LUC (UCL),,HIPPOKRATESLAAN 10,1200,SINT-LAMBRECHTS-WOLUWE,B,Brussels Hoofdstedelijk Gewest,"HIPPOKRATESLAAN 10, 1200, SINT-LAMBRECHTS-WOLUWE, Brussels Hoofdstedelijk Gewest","10, Avenue Hippocrate - Hippokrateslaan, Kapelleveld, Woluwe-Saint-Lambert - Sint-Lambrechts-Woluwe, Brussel-Hoofdstad - Bruxelles-Capitale, Région de Bruxelles-Capitale - Brussels Hoofdstedelijk Gewest, 1200, België / Belgique / Belgien",50.852021699999995,4.452101533661992
53,111,525000,1400,EUROPAZIEKENHUIZEN ,ST. ELISABETH,DE FRELAAN 206,1180,UKKEL,B,Brussels Hoofdstedelijk Gewest,"DE FRELAAN 206, 1180, UKKEL, Brussels Hoofdstedelijk Gewest","206, Avenue De Fré - De Frélaan, Longchamp - Langeveld, Uccle - Ukkel, Brussel-Hoofdstad - Bruxelles-Capitale, Région de Bruxelles-Capitale - Brussels Hoofdstedelijk Gewest, 1180, België / Belgique / Belgien",50.8049108,4.3687686
54,143,526000,4200,UNIVERSITAIR ZIEKENHUIS BRUSSEL,,LAARBEEKLAAN 101,1090,JETTE,B,Brussels Hoofdstedelijk Gewest,"LAARBEEKLAAN 101, 1090, JETTE, Brussels Hoofdstedelijk Gewest","101, Avenue du Laerbeek - Laarbeeklaan, Jardins de Jette - Tuinen van Jette, Jette, Brussel-Hoofdstad - Bruxelles-Capitale, Région de Bruxelles-Capitale - Brussels Hoofdstedelijk Gewest, 1090, België / Belgique / Belgien",50.8861241,4.3094423
55,110,528000,1310,KLINIEK SINT-JAN,KRUIDTUIN,KRUIDTUINLAAN 32,1000,BRUSSEL,B,Brussels Hoofdstedelijk Gewest,"KRUIDTUINLAAN 32, 1000, BRUSSEL, Brussels Hoofdstedelijk Gewest","Clinique Saint-Jean - Kliniek Sint-Jan, 32, Boulevard du Jardin Botanique - Kruidtuinlaan, Quartier Alhambra - Alhambrawijk, Bruxelles - Brussel, Ville de Bruxelles - Stad Brussel, Brussel-Hoofdstad - Bruxelles-Capitale, Région de Bruxelles-Capitale - Brussels Hoofdstedelijk Gewest, 1000, België / Belgique / Belgien",50.85392855,4.360288040433323
56,332,528000,6140,CHIREC - DELTA,DELTA,TRIOMFLAAN 201,1160,OUDERGEM,B,Brussels Hoofdstedelijk Gewest,"TRIOMFLAAN 201, 1160, OUDERGEM, Brussels Hoofdstedelijk Gewest","Carrefour Express, 201, Boulevard du Triomphe - Triomflaan, Auderghem - Oudergem, Brussel-Hoofdstad - Bruxelles-Capitale, Région de Bruxelles-Capitale - Brussels Hoofdstedelijk Gewest, 1160, België / Belgique / Belgien",50.8166779,4.3997706
57,87,529000,1560,IRIS ZIEKENHUIZEN ZUID ,ETTERBEEK,JEAN PAQUOTSTRAAT 63,1050,ELSENE,B,Brussels Hoofdstedelijk Gewest,"JEAN PAQUOTSTRAAT 63, 1050, ELSENE, Brussels Hoofdstedelijk Gewest","La Boîte à lire - De Boekenbox, 63, Rue Jean Paquot - Jean Paquotstraat, Quartier de l’Aulne - Elswijk, Ixelles - Elsene, Brussel-Hoofdstad - Bruxelles-Capitale, Région de Bruxelles-Capitale - Brussels Hoofdstedelijk Gewest, 1050, België / Belgique / Belgien",50.8255267,4.3788729
58,43,541000,1730,CLINIQUE SAINT PIERRE,,AVENUE REINE FABIOLA 9,1340,OTTIGNIES,W,Waals-Brabant,"AVENUE REINE FABIOLA 9, 1340, OTTIGNIES, Waals-Brabant","9, Avenue Reine Fabiola, Ottignies, Ottignies-Louvain-la-Neuve, Nivelles, Brabant wallon, Wallonie, 1340, België / Belgique / Belgien",50.6682612,4.559533019377909
59,346,542000,1710,GROUPE JOLIMONT ,HOPITAL DE NIVELLES,RUE SAMIETTE 1,1400,NIVELLES,W,Waals-Brabant,"RUE SAMIETTE 1, 1400, NIVELLES, Waals-Brabant","1, Rue Samiette, Sainte-Barbe, Îlot Saint Roch, Nivelles, Brabant wallon, Wallonie, 1400, België / Belgique / Belgien",50.59525955,4.315782006
60,723,543000,1760,CHIREC - SARE,HOPITAL DE BRAINE - L'ALLEUD,RUE WAYEZ 35,1420,BRAINE-L'ALLEUD,W,Waals-Brabant,"RUE WAYEZ 35, 1420, BRAINE-L'ALLEUD, Waals-Brabant","35, Rue Wayez, Le Paradis, La Neuville, Braine-l'Alleud, Nivelles, Brabant wallon, Wallonie, 1420, België / Belgique / Belgien",50.683604,4.3674634
61,254,601000,2730,CHU AMBROISE PARE,,BOULEVARD KENNEDY 2,7000,MONS,W,Henegouwen,"BOULEVARD KENNEDY 2, 7000, MONS, Henegouwen",,50.45809826,3.960986455
62,266,601000,2710,GROUPE JOLIMONT ,HOPITAL DE MONS,AV. B. DE CONSTANTINOPLE 5,7000,MONS,W,Henegouwen,"AV. B. DE CONSTANTINOPLE 5, 7000, MONS, Henegouwen",,50.45439429,3.959946453
63,409,602000,3350,CLINIQUE NOTRE-DAME DE GRACE,,CHAUSSEE DE NIVELLES 212,6041,GOSSELIES,W,Henegouwen,"CHAUSSEE DE NIVELLES 212, 6041, GOSSELIES, Henegouwen","Clinique Notre-Dame de Grâce, 212, Chaussée de Nivelles, Gosselies, Charleroi, Hainaut, Wallonie, 6041, België / Belgique / Belgien",50.47504615,4.426427729135334
64,96,603000,3220,CHU TIVOLI,,AVENUE MAX BUSET 34,7100,LA LOUVIERE,W,Henegouwen,"AVENUE MAX BUSET 34, 7100, LA LOUVIERE, Henegouwen","La Louvière Tivoli, 34, Avenue Max Buset, Tivoli, Longtain, La Louvière, Hainaut, Wallonie, 7100, België / Belgique / Belgien",50.4781503,4.2066315
65,146,603000,3200,GROUPE JOLIMONT ,HOPITAL DE JOLIMONT,RUE FERRER 159,7100,HAINE-SAINT-PAUL,W,Henegouwen,"RUE FERRER 159, 7100, HAINE-SAINT-PAUL, Henegouwen","HELORA - Site de La Louvière, 159, Rue Ferrer, Cité du Beau Site, Le Fond des Eaux, Haine-Saint-Paul, La Louvière, Hainaut, Wallonie, 7100, België / Belgique / Belgien",50.477565850000005,4.215025717964124
66,410,604000,3380,CENTRE HOSPITALIER EPICURA,HORNU,ROUTE DE MONS 63,7301,HORNU,W,Henegouwen,"ROUTE DE MONS 63, 7301, HORNU, Henegouwen",,50.43593401,3.82902884
67,266,604000,2720,GROUPE JOLIMONT,HOPITAL DE WARQUIGNIES,RUE DES CHAUFOURS 27,7300,BOUSSU,W,Henegouwen,"RUE DES CHAUFOURS 27, 7300, BOUSSU, Henegouwen","Hôpital de Warquignies, 27, Rue des Chaufours, Boussu, Mons, Hainaut, Wallonie, 7300, België / Belgique / Belgien",50.4177777,3.806689254
68,534,605000,2830,CHWAPI,UNION,RUE DES SPORTS 51,7500,TOURNAI,W,Henegouwen,"RUE DES SPORTS 51, 7500, TOURNAI, Henegouwen","CHwapi Site Union, 51, Rue des Sports, Faubourg Saint-Martin, Cité du Maroc, Tournai, Tournai-Mouscron, Hainaut, Wallonie, 7500, België / Belgique / Belgien",50.59978405,3.3838098151578286
69,247,606000,2770,CENTRE HOSPITALIER DE MOUSCRON,,AVENUE DE FECAMP 49,7700,MOUSCRON,W,Henegouwen,"AVENUE DE FECAMP 49, 7700, MOUSCRON, Henegouwen","Avenue de Fécamp - Fécamplaan, Mouscron - Moeskroen, Mouscron, Tournai-Mouscron, Hainaut, Wallonie, 7700, België / Belgique / Belgien",50.7487806,3.2216739
70,724,607000,1910,CENTRE HOSPITALIER EPICURA,ATH,RUE MARIA THOMEE 1,7800,ATH,W,Henegouwen,"RUE MARIA THOMEE 1, 7800, ATH, Henegouwen","Ath CH EpiCURA, 1, Rue Maria Thomée, Ath, Hainaut, Wallonie, 7800, België / Belgique / Belgien",50.634747,3.777536
71,10,608000,3100,GRAND HOPITAL DE CHARLEROI,NOTRE DAME,GRAND'RUE 3,6000,CHARLEROI,W,Henegouwen,"GRAND'RUE 3, 6000, CHARLEROI, Henegouwen","3, Grand Rue, Montignies-sur-Sambre, Charleroi, Hainaut, Wallonie, 6061, België / Belgique / Belgien",50.41129655,4.458381568821084
72,7,609000,2790,CHR HAUTE SENNE,LE TILLERIAU,CHAUSSEE DE BRAINE 47,7060,SOIGNIES,W,Henegouwen,"CHAUSSEE DE BRAINE 47, 7060, SOIGNIES, Henegouwen","Service Social du CPAS de Soignies, 47, Chaussée de Braine, Soignies, Hainaut, Wallonie, 7060, België / Belgique / Belgien",50.5822278,4.079035627229473
73,249,610000,3160,CENTRE DE SANTE DES FAGNES,,BOULEVARD LOUISE 18,6460,CHIMAY,W,Henegouwen,"BOULEVARD LOUISE 18, 6460, CHIMAY, Henegouwen","Centre de santé des Fagnes, 18, Boulevard Louise, Chimay, Thuin, Hainaut, Wallonie, 6460, België / Belgique / Belgien",50.04475755,4.309732864
74,325,611000,2750,CHU CHARLEROI -  ANDRE VESALE,CHU A. VESALE,RUE DE GOZEE 706,6110,MONTIGNY-LE-TILLEUL,W,Henegouwen,"RUE DE GOZEE 706, 6110, MONTIGNY-LE-TILLEUL, Henegouwen","Hôpital Léonard de Vinci, 706, Rue de Gozée, Montigny-le-Tilleul, Charleroi, Hainaut, Wallonie, 6110, België / Belgique / Belgien",50.36272295,4.365670361066751
75,146,612000,3210,GROUPE JOLIMONT,HOPITAL DE LOBBES,RUE DE LA STATION 25,6540,LOBBES,W,Henegouwen,"RUE DE LA STATION 25, 6540, LOBBES, Henegouwen","Hôpital de Lobbes, 25, Rue de la Station, Lobbes, Thuin, Hainaut, Wallonie, 6540, België / Belgique / Belgien",50.345939200000004,4.259726478848752
76,718,613000,3130,CHU CHARLEROI,HOPITAL CIVIL MARIE CURIE,CHAUSSEE DE BRUXELLES 140,6042,LODELINSART,W,Henegouwen,"CHAUSSEE DE BRUXELLES 140, 6042, LODELINSART, Henegouwen","Chaussée de Bruxelles, Lodelinsart, Charleroi, Hainaut, Wallonie, 6042, België / Belgique / Belgien",50.4348767,4.4409627
77,6,701000,3300,CHR SAMBRE ET MEUSE,MEUSE (CHR NAMUR),AVENUE ALBERT 1IER 185,5000,NAMUR,W,Namen,"AVENUE ALBERT 1IER 185, 5000, NAMUR, Namen",,50.46769821,4.887639397675828
78,103,702000,3310,CHR SAMBRE ET MEUSE,SAMBRE,RUE CHERE VOIE 75,5060,AUVELAIS,W,Namen,"RUE CHERE VOIE 75, 5060, AUVELAIS, Namen","Centre Hospitalier Régional du Val de Sambre, 75, Rue Chère-Voie, Seuris, Auvelais, Sambreville, Namur, Wallonie, 5060, België / Belgique / Belgien",50.435117399999996,4.627376313
79,264,703000,3260,CHU-UCL NAMUR,DINANT,RUE ST.-JACQUES 501,5500,DINANT,W,Namen,"RUE ST.-JACQUES 501, 5500, DINANT, Namen","501, Rue Saint-Jacques, Dinant, Namur, Wallonie, 5500, België / Belgique / Belgien",50.26488355,4.944172227146069
80,39,704000,3280,CHU-UCL NAMUR,GODINNE,AVENUE DR. G.THERASSE 1,5530,MONT-GODINNE,W,Namen,"AVENUE DR. G.THERASSE 1, 5530, MONT-GODINNE, Namen",,50.35828204,4.882494811
81,412,801000,3410,HOPITAL DE LA CITADELLE,CITADELLE,BOULEV. DU 12E DE LIGNE 1,4000,LIEGE,W,Luik,"BOULEV. DU 12E DE LIGNE 1, 4000, LIEGE, Luik",,50.65487732,5.573377898
82,707,802000,2840,CHU DE LIEGE,NOTRE-DAME DE BRUYERES,RUE DE GAILLARMONT 600,4032,CHENEE,W,Luik,"RUE DE GAILLARMONT 600, 4032, CHENEE, Luik","C.H.U. Notre-dame des Bruyères, 600, Rue de Gaillarmont, Chênée-Thiers, Chênée, Liège, Wallonie, 4032, België / Belgique / Belgien",50.623093,5.637327425159982
83,42,803000,2990,CENTRE HOSPITALIER BOIS DE L'ABBAYE,SERAING,RUE LAPLACE 40,4100,SERAING,W,Luik,"RUE LAPLACE 40, 4100, SERAING, Luik","Centre Hospitalier du Bois de l'Abbaye, 40, Rue Laplace, Le Bois de l'Abbaye, Seraing, Liège, Wallonie, 4100, België / Belgique / Belgien",50.5813787,5.493559283995575
84,152,803000,6200,GROUPE SANTE CHC,CLINIQUE CHC MONTLEGIA,BOULEVARD PATIENCE ET BEAUJONC 2,4000,LIEGE,W,Luik,"BOULEVARD PATIENCE ET BEAUJONC 2, 4000, LIEGE, Luik","2, Boulevard de Patience et Beaujonc, Burenville, Glain, Liège, Wallonie, 4000, België / Belgique / Belgien",50.64731355,5.534643765560245
85,152,804000,2930,GROUPE SANTE CHC ,CLINIQUE CHC WAREMME,RUE DE SELYS LONGCHAMPS 4,4300,WAREMME,W,Luik,"RUE DE SELYS LONGCHAMPS 4, 4300, WAREMME, Luik","4, Rue Edmond de Sélys-Longchamps, Petit-Axhe, Waremme, Liège, Wallonie, 4300, België / Belgique / Belgien",50.694729800000005,5.247830387400597
86,68,805000,2870,CENTRE HOSPITALIER REGIONAL DE HUY,,RUE TROIS PONTS 2,4500,HUY,W,Luik,"RUE TROIS PONTS 2, 4500, HUY, Luik","2, Rue des Trois Ponts, La Sarte, Huy, Liège, Wallonie, 4500, België / Belgique / Belgien",50.5143968,5.2409584
87,15,806000,2850,ST.-NIKOLAUS HOSPITAL,,HUFENGASSE 4-8,4700,EUPEN,W,Lüttich,"HUFENGASSE 4-8, 4700, EUPEN, Lüttich","Sankt Nikolaus-Hospital, 4-8, Hufengasse, Unterstadt, Eupen, Verviers, Liège, Wallonie, 4700, België / Belgique / Belgien",50.628367850000004,6.029618692118345
88,257,807000,2980,KLINIK ST.-JOSEF,,KLOSTERSTRASSE 9,4780,SANKT-VITH,W,Lüttich,"KLOSTERSTRASSE 9, 4780, SANKT-VITH, Lüttich","Klinik St Josef, 9, Klosterstraße, Sankt Vith, Verviers, Liège, Wallonie, 4780, België / Belgique / Belgien",50.2771945,6.127362163285787
89,20,808000,3010,CHR VERVIERS - EAST BELGIUM,LA TOURELLE,RUE DU PARC 29,4800,VERVIERS,W,Luik,"RUE DU PARC 29, 4800, VERVIERS, Luik","Urgences La Tourelle, 29, Rue du Parc, Heusy, Verviers, Liège, Wallonie, 4800, België / Belgique / Belgien",50.5819787,5.857962823681964
90,168,901000,3720,VIVALIA ,HOPITAL DE BASTOGNE,RUE DE HOUFFALIZE 1,6600,BASTOGNE,W,Luxemburg,"RUE DE HOUFFALIZE 1, 6600, BASTOGNE, Luxemburg","1, Rue de Houffalize, Ollomont, Nadrin, Houffalize, Bastogne, Luxembourg, Wallonie, 6660, België / Belgique / Belgien",50.15913155,5.683117997075744
91,246,902000,3690,VIVALIA ,HOPITAL D'ARLON,RUE DES DEPORTES 137,6700,ARLON,W,Luxemburg,"RUE DES DEPORTES 137, 6700, ARLON, Luxemburg","137, Rue des Déportés, Ancienne caserne Léopold, Arlon, Luxembourg, Wallonie, 6700, België / Belgique / Belgien",49.6780313,5.8207003
92,168,903000,3240,VIVALIA ,HOPITAL DE LIBRAMONT,AVENUE DE HOUFFALIZE 35,6800,LIBRAMONT,W,Luxemburg,"AVENUE DE HOUFFALIZE 35, 6800, LIBRAMONT, Luxemburg","Avenue de Houffalize, Libramont-Chevigny, Libramont, Libramont-Chevigny, Neufchâteau, Luxembourg, Wallonie, 6800, België / Belgique / Belgien",49.9262312,5.3825562
93,164,904000,3230,VIVALIA ,HOPITAL DE MARCHE,RUE DU VIVIER 21,6900,MARCHE-EN-FAMENNE,W,Luxemburg,"RUE DU VIVIER 21, 6900, MARCHE-EN-FAMENNE, Luxemburg","Aye Clinique, 21, Rue du Vivier, Aye, Marche-en-Famenne, Luxembourg, Wallonie, 6900, België / Belgique / Belgien",50.2282228,5.3231213
